{
  "norad_id": 57361,
  "name": "STARLINK-6340",
  "history": [
    {
      "epoch": "2026-04-10T06:00:00.999648Z",
      "apogee_km": 504.7113670341587,
      "perigee_km": 502.3433863221435,
      "latitude_deg": 16.282376408580046,
      "longitude_deg": 153.24551727927295,
      "height_km": 502.8913592038632,
      "semi_major_axis_km": 6881.664376678151,
      "eccentricity": 0.00017205,
      "inclination_deg": 43.0003,
      "raan_deg": 63.5869,
      "arg_perigee_deg": 281.9277,
      "mean_anomaly_deg": 102.264,
      "mean_motion_rev_day": 15.20766475
    },
    {
      "epoch": "2026-04-11T20:00:01.000224Z",
      "apogee_km": 498.80776085848265,
      "perigee_km": 496.53874347526835,
      "latitude_deg": 38.58225172030019,
      "longitude_deg": -27.024792021248363,
      "height_km": 500.6157902232124,
      "semi_major_axis_km": 6875.810252166875,
      "eccentricity": 0.000165,
      "inclination_deg": 42.9994,
      "raan_deg": 54.7258,
      "arg_perigee_deg": 293.0147,
      "mean_anomaly_deg": 132.6891,
      "mean_motion_rev_day": 15.22709079
    },
    {
      "epoch": "2026-04-13T06:00:02.000160Z",
      "apogee_km": 493.7016611214949,
      "perigee_km": 491.3793721208758,
      "latitude_deg": -41.830380864131094,
      "longitude_deg": 42.6815533447105,
      "height_km": 504.34853715740877,
      "semi_major_axis_km": 6870.677516621185,
      "eccentricity": 0.000169,
      "inclination_deg": 43.0004,
      "raan_deg": 46.7891,
      "arg_perigee_deg": 251.8854,
      "mean_anomaly_deg": 30.9952,
      "mean_motion_rev_day": 15.24415706
    },
    {
      "epoch": "2026-04-14T20:00:01.999008Z",
      "apogee_km": 488.0317284193352,
      "perigee_km": 485.4011165878328,
      "latitude_deg": -10.03809325800784,
      "longitude_deg": -116.01384487282662,
      "height_km": 488.0975767806804,
      "semi_major_axis_km": 6864.853422503584,
      "eccentricity": 0.0001916,
      "inclination_deg": 43.0007,
      "raan_deg": 37.8796,
      "arg_perigee_deg": 265.8042,
      "mean_anomaly_deg": 79.5362,
      "mean_motion_rev_day": 15.26356073
    },
    {
      "epoch": "2026-04-15T20:00:01.999008Z",
      "apogee_km": 484.94940001488794,
      "perigee_km": 484.06960873302796,
      "latitude_deg": 43.08845777738363,
      "longitude_deg": -25.783355068322955,
      "height_km": 488.0165996346482,
      "semi_major_axis_km": 6862.646504373958,
      "eccentricity": 6.41e-05,
      "inclination_deg": 43.0008,
      "raan_deg": 32.2407,
      "arg_perigee_deg": 299.7404,
      "mean_anomaly_deg": 147.3121,
      "mean_motion_rev_day": 15.2709241
    },
    {
      "epoch": "2026-04-16T20:00:01.999008Z",
      "apogee_km": 483.73708589450143,
      "perigee_km": 482.3785693186355,
      "latitude_deg": -8.023629116980558,
      "longitude_deg": 70.25704947490257,
      "height_km": 484.126082624846,
      "semi_major_axis_km": 6861.194827606568,
      "eccentricity": 9.9e-05,
      "inclination_deg": 43.0093,
      "raan_deg": 26.5977,
      "arg_perigee_deg": 273.4217,
      "mean_anomaly_deg": 278.2441,
      "mean_motion_rev_day": 15.27577084
    },
    {
      "epoch": "2026-04-17T22:00:01.999584Z",
      "apogee_km": 483.62305650680173,
      "perigee_km": 482.4167279020148,
      "latitude_deg": 23.838404458714972,
      "longitude_deg": -127.45849878160317,
      "height_km": 483.07131135779275,
      "semi_major_axis_km": 6861.156892204408,
      "eccentricity": 8.791e-05,
      "inclination_deg": 43.0008,
      "raan_deg": 20.4809,
      "arg_perigee_deg": 273.0242,
      "mean_anomaly_deg": 123.1711,
      "mean_motion_rev_day": 15.27589753
    },
    {
      "epoch": "2026-04-18T20:00:01.000224Z",
      "apogee_km": 483.69267440351723,
      "perigee_km": 482.3616085600697,
      "latitude_deg": 27.858699024188414,
      "longitude_deg": -97.33809250653803,
      "height_km": 483.7678875121884,
      "semi_major_axis_km": 6861.164141481793,
      "eccentricity": 9.7e-05,
      "inclination_deg": 43.0007,
      "raan_deg": 15.3038,
      "arg_perigee_deg": 265.0942,
      "mean_anomaly_deg": 137.9646,
      "mean_motion_rev_day": 15.27587332
    },
    {
      "epoch": "2026-04-19T16:00:01.998720Z",
      "apogee_km": 483.7591297609433,
      "perigee_km": 482.51037830171026,
      "latitude_deg": -31.02008081216413,
      "longitude_deg": -117.0679665254414,
      "height_km": 491.1995392872993,
      "semi_major_axis_km": 6861.271754031326,
      "eccentricity": 9.1e-05,
      "inclination_deg": 43.0006,
      "raan_deg": 10.596,
      "arg_perigee_deg": 255.3772,
      "mean_anomaly_deg": 55.8707,
      "mean_motion_rev_day": 15.27551394
    }
  ]
}